SatCatId,ObjectName,LaunchYear,OrbitalPeriod,LaunchMass,StatusCode,Inclination,Status,UcsData,OrbitClassEstimated,LaunchSiteCountry,Owner,UseType,Purpose,LaunchVehicleClass,TLE1,TLE2,MeanMotion,Eccentricity,OrbitClass
57367,STARLINK-6215,2023,93.42,-1.0,+,43.0,Active,0,LEO,USA,USA,Unknown,Unknown,Unknown,1 57367U 23099AR  23275.91667824 -.00936481  00000+0 -26121-1 0  9998,2 57367  43.0004  15.0383 0001403 280.3389 284.2027 15.38732941  5982,15.38732941,0.0001403,LEO
57368,STARLINK-6218,2023,95.71,-1.0,+,43.0,Active,0,LEO,USA,USA,Unknown,Unknown,Unknown,1 57368U 23099AS  23275.99031032 -.00002779  00000+0 -18082-3 0  9996,2 57368  43.0007  24.8365 0000894 272.1757  87.8984 15.04488151 13325,15.04488151,8.94e-05,LEO
57369,STARLINK-6168,2023,95.71,-1.0,+,43.0,Active,0,LEO,USA,USA,Unknown,Unknown,Unknown,1 57369U 23099AT  23276.39998944 -.00001058  00000+0 -59803-4 0  9992,2 57369  43.0003  22.7498 0001118 290.5142  69.5581 15.04489825 13338,15.04489825,0.0001118,LEO
57370,STARLINK-5353,2023,95.71,-1.0,+,43.0,Active,0,LEO,USA,USA,Unknown,Unknown,Unknown,1 57370U 23099AU  23275.91667824  .00014245  00000+0  10137-2 0  9996,2 57370  43.0004  25.1335 0001501 271.0629  93.5878 15.04484344  5943,15.04484344,0.0001501,LEO
57371,STARLINK-6032,2023,95.71,-1.0,+,43.0,Active,0,LEO,USA,USA,Unknown,Unknown,Unknown,1 57371U 23099AV  23276.00002315 -.00004845  00000+0 -32606-3 0  9999,2 57371  43.0009  24.8349 0001482 278.3940 112.8247 15.04491535 13274,15.04491535,0.0001482,LEO
57372,STARLINK-5975,2023,95.71,-1.0,+,43.0,Active,0,LEO,USA,USA,Unknown,Unknown,Unknown,1 57372U 23099AW  23276.57131666 -.00094439  00000+0 -68577-2 0  9997,2 57372  43.0013  21.4472 0000501 146.6566 213.4309 15.03683189 13209,15.03683189,5.01e-05,LEO
57373,STARLINK-6370,2023,95.71,-1.0,+,43.0,Active,0,LEO,USA,USA,Unknown,Unknown,Unknown,1 57373U 23099AX  23276.00002315 -.00002169  00000+0 -13788-3 0  9998,2 57373  43.0006  24.7237 0001373 273.2268 164.3877 15.04491945 13326,15.04491945,0.0001373,LEO
57374,STARLINK-6369,2023,93.49,-1.0,+,43.0,Active,0,LEO,USA,USA,Unknown,Unknown,Unknown,1 57374U 23099AY  23276.25001157 -.00903041  00000+0 -26648-1 0  9995,2 57374  42.9999  13.4575 0001307 278.3462 199.8499 15.36917236 13475,15.36917236,0.0001307,LEO
57375,STARLINK-6363,2023,95.71,-1.0,+,43.0,Active,0,LEO,USA,USA,Unknown,Unknown,Unknown,1 57375U 23099AZ  23276.44486399 -.00025638  00000+0 -18036-2 0  9992,2 57375  43.0017  22.2260 0002169 240.8438 119.2188 15.04279659 13399,15.04279659,0.0002169,LEO
57376,STARLINK-6367,2023,95.7,-1.0,+,43.0,Active,0,LEO,USA,USA,Unknown,Unknown,Unknown,1 57376U 23099BA  23275.91667824 -.00013918  00000+0 -10170-2 0  9997,2 57376  43.0005  24.9646 0001419 282.2684 152.9884 15.02544483  5851,15.02544483,0.0001419,LEO
57377,STARLINK-6358,2023,95.71,-1.0,+,43.0,Active,0,LEO,USA,USA,Unknown,Unknown,Unknown,1 57377U 23099BB  23276.44045638 -.00001565  00000+0 -95383-4 0  9996,2 57377  43.0001  22.1926 0001069 257.0235 103.0488 15.04498289 13391,15.04498289,0.0001069,LEO
57378,STARLINK-6364,2023,91.64,-1.0,+,43.0,Active,0,LEO,USA,USA,Unknown,Unknown,Unknown,1 57378U 23099BC  23275.64362119 -.00000377  00000+0  57101-6 0  9991,2 57378  43.0007  14.2754 0001487 284.3890  75.6813 15.71352927 13414,15.71352927,0.0001487,LEO
57379,STARLINK-6361,2023,95.71,-1.0,+,43.0,Active,0,LEO,USA,USA,Unknown,Unknown,Unknown,1 57379U 23099BD  23276.43667693 -.00000636  00000+0 -30103-4 0  9995,2 57379  43.0007  22.1662 0000763 295.7091  64.3673 15.04491735 13399,15.04491735,7.63e-05,LEO
57380,STARLINK-6366,2023,91.64,-1.0,+,43.0,Active,0,LEO,USA,USA,Unknown,Unknown,Unknown,1 57380U 23099BE  23276.53337853  .00002493  00000+0  22448-4 0  9994,2 57380  43.0003   8.9065 0001793 254.6457 105.4213 15.71359514 13546,15.71359514,0.0001793,LEO
57381,STARLINK-6371,2023,93.36,-1.0,+,43.0,Active,0,LEO,USA,USA,Unknown,Unknown,Unknown,1 57381U 23099BF  23276.25001157 -.00899844  00000+0 -24811-1 0  9998,2 57381  43.0005  13.3538 0001308 259.9177 260.9336 15.38976857 13476,15.38976857,0.0001308,LEO
57386,STARLING 4,2023,96.11,-1.0,+,99.47,Active,0,LEO,New Zealand,USA,Unknown,Unknown,Unknown,1 57386U 23100A   23276.37657133  .00003355  00000+0  28819-3 0  9996,2 57386  99.4670  58.0046 0014639  38.4479 321.7778 14.98315956 11577,14.98315956,0.0014639,LEO
57387,STARLING 2,2023,96.11,-1.0,+,99.47,Active,0,LEO,New Zealand,USA,Unknown,Unknown,Unknown,1 57387U 23100B   23276.17654851  .00003109  00000+0  26741-3 0  9998,2 57387  99.4675  57.7635 0014620  39.1171 321.1100 14.98337289 11543,14.98337289,0.001462,LEO
57388,STARLING 1,2023,96.1,-1.0,+,99.48,Active,0,LEO,New Zealand,USA,Unknown,Unknown,Unknown,1 57388U 23100C   23275.97067595  .00003376  00000+0  28967-3 0  9997,2 57388  99.4753  57.5908 0003051 160.0708 200.0628 14.98424035 11511,14.98424035,0.0003051,LEO
57389,STARLING 3,2023,96.11,-1.0,+,99.47,Active,0,LEO,New Zealand,USA,Unknown,Unknown,Unknown,1 57389U 23100D   23276.37680252  .00003124  00000+0  26877-3 0  9993,2 57389  99.4674  58.0061 0014631  38.6183 321.6077 14.98325967 11571,14.98325967,0.0014631,LEO
57390,LEMUR-2-MANO,2023,96.05,-1.0,+,99.47,Active,0,LEO,New Zealand,USA,Unknown,Unknown,Unknown,1 57390U 23100E   23275.87632225  .00013594  00000+0  11142-2 0  9996,2 57390  99.4715  57.5247 0016623  44.3375 315.9171 14.99328133 11502,14.99328133,0.0016623,LEO
57391,LEMUR-2-DEVERILL-M-T,2023,96.02,-1.0,+,99.47,Active,0,LEO,New Zealand,USA,Unknown,Unknown,Unknown,1 57391U 23100F   23276.38752228  .00010792  00000+0  87862-3 0  9990,2 57391  99.4696  58.2429 0012599  40.2128 320.0019 14.99710708 11589,14.99710708,0.0012599,LEO
57392,LEO 3,2023,105.27,-1.0,+,99.45,Active,0,LEO,New Zealand,Canada,Unknown,Unknown,Unknown,1 57392U 23100G   23275.81429489  .00000027  00000+0  83676-4 0  9998,2 57392  99.4514  39.4771 0017515  48.1523 312.1114 13.67893868 10488,13.67893868,0.0017515,LEO
57399,TIANMU-1 07,2023,95.13,-1.0,+,97.4,Active,0,LEO,PRC,China,Unknown,Unknown,Unknown,1 57399U 23101A   23276.50572274  .00006763  00000+0  37880-3 0  9992,2 57399  97.4012 335.9895 0005123  23.4111 336.7353 15.13722585 11419,15.13722585,0.0005123,LEO
57400,TIANMU-1 08,2023,95.13,-1.0,+,97.4,Active,0,LEO,PRC,China,Unknown,Unknown,Unknown,1 57400U 23101B   23276.47354434  .00006225  00000+0  34888-3 0  9995,2 57400  97.3998 335.8710 0007653  19.0630 341.0887 15.13718499 11393,15.13718499,0.0007653,LEO
57401,TIANMU-1 09,2023,95.13,-1.0,+,97.4,Active,0,LEO,PRC,China,Unknown,Unknown,Unknown,1 57401U 23101C   23276.45669885  .00007183  00000+0  40172-3 0  9990,2 57401  97.3953 335.8480 0008046  13.6346 346.5101 15.13741257 11397,15.13741257,0.0008046,LEO
57402,TIANMU-1 10,2023,95.13,-1.0,+,97.4,Active,0,LEO,PRC,China,Unknown,Unknown,Unknown,1 57402U 23101D   23276.49064599  .00006341  00000+0  35482-3 0  9999,2 57402  97.4035 335.8829 0010459  12.9460 347.2038 15.13746382 11398,15.13746382,0.0010459,LEO
57404,STARLINK-30240,2023,95.84,-1.0,+,43.0,Active,0,LEO,USA,USA,Unknown,Unknown,Unknown,1 57404U 23102A   23276.47984245  .00026010  00000+0  19327-2 0  9993,2 57404  43.0039  35.4022 0001252 277.0858  82.9842 15.02549628 12620,15.02549628,0.0001252,LEO
57405,STARLINK-30192,2023,95.84,-1.0,+,43.0,Active,0,LEO,USA,USA,Unknown,Unknown,Unknown,1 57405U 23102B   23276.47652375  .00011924  00000+0  89615-3 0  9996,2 57405  43.0022  35.3771 0001207 314.0890  45.9853 15.02541355 12621,15.02541355,0.0001207,LEO
57406,STARLINK-30195,2023,95.84,-1.0,+,43.0,Active,0,LEO,USA,USA,Unknown,Unknown,Unknown,1 57406U 23102C   23276.47432505  .00036681  00000+0  27185-2 0  9998,2 57406  43.0040  35.3600 0001433 252.9648 107.1037 15.02504690 12621,15.0250469,0.0001433,LEO
57407,STARLINK-30207,2023,95.09,-1.0,+,43.0,Active,0,LEO,USA,USA,Unknown,Unknown,Unknown,1 57407U 23102D   23276.19929177  .00038052  00000+0  20422-2 0  9995,2 57407  43.0024  26.3525 0001131 215.7173 144.3598 15.14314745 12702,15.14314745,0.0001131,LEO
57408,STARLINK-30205,2023,95.84,-1.0,+,43.0,Active,0,LEO,USA,USA,Unknown,Unknown,Unknown,1 57408U 23102E   23276.46319447  .00019345  00000+0  14433-2 0  9998,2 57408  43.0028  35.2783 0001003 271.3087  88.7640 15.02533590 12620,15.0253359,0.0001003,LEO
57409,STARLINK-30222,2023,95.79,-1.0,+,43.0,Active,0,LEO,USA,USA,Unknown,Unknown,Unknown,1 57409U 23102F   23276.45723468  .00025743  00000+0  18723-2 0  9995,2 57409  43.0022  35.2347 0002439 285.2502  74.8071 15.03360848 12620,15.03360848,0.0002439,LEO
57410,STARLINK-30172,2023,95.84,-1.0,+,43.0,Active,0,LEO,USA,USA,Unknown,Unknown,Unknown,1 57410U 23102G   23275.66213803 -.00004349  00000+0 -30717-3 0  9995,2 57410  43.0006  39.5817 0000690 261.2693  98.8071 15.02524339 12504,15.02524339,6.9e-05,LEO
57411,STARLINK-30214,2023,95.84,-1.0,+,43.0,Active,0,LEO,USA,USA,Unknown,Unknown,Unknown,1 57411U 23102H   23275.63106337 -.00001891  00000+0 -12498-3 0  9991,2 57411  43.0021  39.3648 0001622 295.7296  64.3379 15.02533563 12451,15.02533563,0.0001622,LEO
57412,STARLINK-30182,2023,95.84,-1.0,+,43.0,Active,0,LEO,USA,USA,Unknown,Unknown,Unknown,1 57412U 23102J   23276.19063140 -.00001313  00000+0 -82175-4 0  9997,2 57412  43.0030  36.6719 0001302 275.3157  84.7537 15.02528658 12581,15.02528658,0.0001302,LEO
57413,STARLINK-30191,2023,95.84,-1.0,+,43.0,Active,0,LEO,USA,USA,Unknown,Unknown,Unknown,1 57413U 23102K   23276.38007812 -.00000404  00000+0 -14821-4 0  9996,2 57413  43.0035  35.5148 0001348 274.0196  86.0492 15.02527756 12617,15.02527756,0.0001348,LEO
57414,STARLINK-30193,2023,95.89,-1.0,+,43.0,Active,0,LEO,USA,USA,Unknown,Unknown,Unknown,1 57414U 23102L   23276.58334491 -.00039688  00000+0 -29392-2 0  9998,2 57414  43.0015  34.4548 0001322 262.2255 100.5701 15.02540210 12643,15.0254021,0.0001322,LEO
57415,STARLINK-30208,2023,95.84,-1.0,+,43.0,Active,0,LEO,USA,USA,Unknown,Unknown,Unknown,1 57415U 23102M   23276.44322781  .00019495  00000+0  14541-2 0  9995,2 57415  43.0031  35.1282 0001000 278.8228  81.2501 15.02539016 12411,15.02539016,0.0001,LEO
